[{"OBJECT_NAME":"STARLINK-32457","OBJECT_ID":"2024-196L","EPOCH":"2026-03-09T12:38:03.444864","MEAN_MOTION":15.30190961,"ECCENTRICITY":0.00010728,"INCLINATION":53.1601,"RA_OF_ASC_NODE":101.9495,"ARG_OF_PERICENTER":115.0692,"MEAN_ANOMALY":245.042,"EPHEMERIS_TYPE":0,"CLASSIFICATION_TYPE":"U","NORAD_CAT_ID":61717,"ELEMENT_SET_NO":999,"REV_AT_EPOCH":7713,"BSTAR":-1.1542636e-5,"MEAN_MOTION_DOT":-7.01e-6,"MEAN_MOTION_DDOT":0},{"OBJECT_NAME":"FENGYUN 1C DEB","OBJECT_ID":"1999-025AUA","EPOCH":"2026-03-09T22:20:03.086592","MEAN_MOTION":15.37519861,"ECCENTRICITY":0.00616014,"INCLINATION":98.7858,"RA_OF_ASC_NODE":60.8335,"ARG_OF_PERICENTER":230.1589,"MEAN_ANOMALY":129.4222,"EPHEMERIS_TYPE":0,"CLASSIFICATION_TYPE":"U","NORAD_CAT_ID":30764,"ELEMENT_SET_NO":999,"REV_AT_EPOCH":2558,"BSTAR":0.00082447851,"MEAN_MOTION_DOT":0.00032356,"MEAN_MOTION_DDOT":0}]
